[
  {
    "ORDINAL": "1",
    "COMMENT": "GENERATED VIA SPACETRACK.ORG API",
    "ORIGINATOR": "JSPOC",
    "NORAD_CAT_ID": "18",
    "OBJECT_NAME": "DISCOVERER 5",
    "OBJECT_TYPE": "PAYLOAD",
    "CLASSIFICATION_TYPE": "U",
    "INTLDES": "59005A",
    "EPOCH": "1959-09-26 07:47:40",
    "EPOCH_MICROSECONDS": "948799",
    "MEAN_MOTION": "16.16111033",
    "ECCENTRICITY": "0.0140209",
    "INCLINATION": "79.9899",
    "RA_OF_ASC_NODE": "251.4819",
    "ARG_OF_PERICENTER": "12.7649",
    "MEAN_ANOMALY": "347.4143",
    "EPHEMERIS_TYPE": "0",
    "ELEMENT_SET_NO": "999",
    "REV_AT_EPOCH": "680",
    "BSTAR": "0",
    "MEAN_MOTION_DOT": "0.04655228",
    "MEAN_MOTION_DDOT": "0",
    "FILE": "33905",
    "TLE_LINE0": "0 DISCOVERER 5",
    "TLE_LINE1": "1 00018U 59005  A 59269.32477950  .04655228 +00000-0 +00000-0 0  9998",
    "TLE_LINE2": "2 00018 079.9899 251.4819 0140209 012.7649 347.4143 16.16111033006800",
    "OBJECT_ID": "1959-005A",
    "OBJECT_NUMBER": "18",
    "SEMIMAJOR_AXIS": "6608.273",
    "PERIOD": "89.102",
    "APOGEE": "322.792",
    "PERIGEE": "137.484"
  },
  {
    "ORDINAL": "1",
    "COMMENT": "GENERATED VIA SPACETRACK.ORG API",
    "ORIGINATOR": "JSPOC",
    "NORAD_CAT_ID": "19",
    "OBJECT_NAME": "DISCOVERER 6",
    "OBJECT_TYPE": "PAYLOAD",
    "CLASSIFICATION_TYPE": "U",
    "INTLDES": "59006A",
    "EPOCH": "1959-10-05 12:13:32",
    "EPOCH_MICROSECONDS": "768255",
    "MEAN_MOTION": "15.83731828",
    "ECCENTRICITY": "0.0222212",
    "INCLINATION": "83.9999",
    "RA_OF_ASC_NODE": "286.5094",
    "ARG_OF_PERICENTER": "326.3932",
    "MEAN_ANOMALY": "34.3056",
    "EPHEMERIS_TYPE": "0",
    "ELEMENT_SET_NO": "999",
    "REV_AT_EPOCH": "720",
    "BSTAR": "0",
    "MEAN_MOTION_DOT": "0.01114833",
    "MEAN_MOTION_DDOT": "0",
    "FILE": "33905",
    "TLE_LINE0": "0 DISCOVERER 6",
    "TLE_LINE1": "1 00019U 59006  A 59278.50940704  .01114833 +00000-0 +00000-0 0  9991",
    "TLE_LINE2": "2 00019 083.9999 286.5094 0222212 326.3932 034.3056 15.83731828007208",
    "OBJECT_ID": "1959-006A",
    "OBJECT_NUMBER": "19",
    "SEMIMAJOR_AXIS": "6698.039",
    "PERIOD": "90.924",
    "APOGEE": "468.742",
    "PERIGEE": "171.065"
  },
  {
    "ORDINAL": "1",
    "COMMENT": "GENERATED VIA SPACETRACK.ORG API",
    "ORIGINATOR": "JSPOC",
    "NORAD_CAT_ID": "20",
    "OBJECT_NAME": "VANGUARD 3",
    "OBJECT_TYPE": "PAYLOAD",
    "CLASSIFICATION_TYPE": "U",
    "INTLDES": "59007A",
    "EPOCH": "2019-03-18 21:45:26",
    "EPOCH_MICROSECONDS": "604288",
    "MEAN_MOTION": "11.55600661",
    "ECCENTRICITY": "0.1665061",
    "INCLINATION": "33.3465",
    "RA_OF_ASC_NODE": "8.4423",
    "ARG_OF_PERICENTER": "4.997",
    "MEAN_ANOMALY": "356.5206",
    "EPHEMERIS_TYPE": "0",
    "ELEMENT_SET_NO": "999",
    "REV_AT_EPOCH": "17780",
    "BSTAR": "0.0001202",
    "MEAN_MOTION_DOT": "2.87e-06",
    "MEAN_MOTION_DDOT": "0",
    "FILE": "2427602",
    "TLE_LINE0": "0 VANGUARD 3",
    "TLE_LINE1": "1    20U 59007A   19077.90655792  .00000287  00000-0  12020-3 0  9995",
    "TLE_LINE2": "2    20  33.3465   8.4423 1665061   4.9970 356.5206 11.55600661177804",
    "OBJECT_ID": "1959-007A",
    "OBJECT_NUMBER": "20",
    "SEMIMAJOR_AXIS": "8264.120",
    "PERIOD": "124.610",
    "APOGEE": "3262.012",
    "PERIGEE": "509.959"
  },
  {
    "ORDINAL": "1",
    "COMMENT": "GENERATED VIA SPACETRACK.ORG API",
    "ORIGINATOR": "JSPOC",
    "NORAD_CAT_ID": "22",
    "OBJECT_NAME": "EXPLORER 7",
    "OBJECT_TYPE": "PAYLOAD",
    "CLASSIFICATION_TYPE": "U",
    "INTLDES": "59009A",
    "EPOCH": "2019-03-18 11:48:13",
    "EPOCH_MICROSECONDS": "384512",
    "MEAN_MOTION": "14.94790513",
    "ECCENTRICITY": "0.0140554",
    "INCLINATION": "50.2844",
    "RA_OF_ASC_NODE": "85.5811",
    "ARG_OF_PERICENTER": "313.2421",
    "MEAN_ANOMALY": "45.6862",
    "EPHEMERIS_TYPE": "0",
    "ELEMENT_SET_NO": "999",
    "REV_AT_EPOCH": "40201",
    "BSTAR": "4.8906e-05",
    "MEAN_MOTION_DOT": "3.45e-06",
    "MEAN_MOTION_DDOT": "0",
    "FILE": "2427675",
    "TLE_LINE0": "0 EXPLORER 7",
    "TLE_LINE1": "1    22U 59009A   19077.49182158 +.00000345 +00000-0 +48906-4 0  9992",
    "TLE_LINE2": "2    22 050.2844 085.5811 0140554 313.2421 045.6862 14.94790513402013",
    "OBJECT_ID": "1959-009A",
    "OBJECT_NUMBER": "22",
    "SEMIMAJOR_AXIS": "6961.160",
    "PERIOD": "96.334",
    "APOGEE": "680.866",
    "PERIGEE": "485.183"
  },
  {
    "ORDINAL": "1",
    "COMMENT": "GENERATED VIA SPACETRACK.ORG API",
    "ORIGINATOR": "JSPOC",
    "NORAD_CAT_ID": "23",
    "OBJECT_NAME": "JUNO II R/B",
    "OBJECT_TYPE": "ROCKET BODY",
    "CLASSIFICATION_TYPE": "U",
    "INTLDES": "59009B",
    "EPOCH": "1989-07-14 18:51:46",
    "EPOCH_MICROSECONDS": "968192",
    "MEAN_MOTION": "16.13561323",
    "ECCENTRICITY": "0.0018343",
    "INCLINATION": "50.2674",
    "RA_OF_ASC_NODE": "226.9734",
    "ARG_OF_PERICENTER": "32.5712",
    "MEAN_ANOMALY": "327.5638",
    "EPHEMERIS_TYPE": "0",
    "ELEMENT_SET_NO": "999",
    "REV_AT_EPOCH": "58050",
    "BSTAR": "0.0030065",
    "MEAN_MOTION_DOT": "0.02731772",
    "MEAN_MOTION_DDOT": "0.019637",
    "FILE": "34586",
    "TLE_LINE0": "0 JUNO II R/B",
    "TLE_LINE1": "1 00023U 59009  B 89195.78596028  .02731772 +19637-1 +30065-2 0  9997",
    "TLE_LINE2": "2 00023 050.2674 226.9734 0018343 032.5712 327.5638 16.13561323580506",
    "OBJECT_ID": "1959-009B",
    "OBJECT_NUMBER": "23",
    "SEMIMAJOR_AXIS": "6615.232",
    "PERIOD": "89.243",
    "APOGEE": "249.232",
    "PERIGEE": "224.963"
  },
  {
    "ORDINAL": "1",
    "COMMENT": "GENERATED VIA SPACETRACK.ORG API",
    "ORIGINATOR": "JSPOC",
    "NORAD_CAT_ID": "24",
    "OBJECT_NAME": "DISCOVERER 7",
    "OBJECT_TYPE": "PAYLOAD",
    "CLASSIFICATION_TYPE": "U",
    "INTLDES": "59010A",
    "EPOCH": "1959-11-20 18:27:19",
    "EPOCH_MICROSECONDS": "7136",
    "MEAN_MOTION": "15.73099002",
    "ECCENTRICITY": "0.0281",
    "INCLINATION": "81.6399",
    "RA_OF_ASC_NODE": "44.7879",
    "ARG_OF_PERICENTER": "119.5599",
    "MEAN_ANOMALY": "241.8752",
    "EPHEMERIS_TYPE": "0",
    "ELEMENT_SET_NO": "999",
    "REV_AT_EPOCH": "200",
    "BSTAR": "0",
    "MEAN_MOTION_DOT": "0.03159051",
    "MEAN_MOTION_DDOT": "0",
    "FILE": "33905",
    "TLE_LINE0": "0 DISCOVERER 7",
    "TLE_LINE1": "1 00024U 59010  A 59324.76896999  .03159051 +00000-0 +00000-0 0  9991",
    "TLE_LINE2": "2 00024 081.6399 044.7879 0281000 119.5599 241.8752 15.73099002002000",
    "OBJECT_ID": "1959-010A",
    "OBJECT_NUMBER": "24",
    "SEMIMAJOR_AXIS": "6728.187",
    "PERIOD": "91.539",
    "APOGEE": "539.114",
    "PERIGEE": "160.990"
  },
  {
    "ORDINAL": "1",
    "COMMENT": "GENERATED VIA SPACETRACK.ORG API",
    "ORIGINATOR": "JSPOC",
    "NORAD_CAT_ID": "25",
    "OBJECT_NAME": "DISCOVERER 8",
    "OBJECT_TYPE": "PAYLOAD",
    "CLASSIFICATION_TYPE": "U",
    "INTLDES": "59011A",
    "EPOCH": "1960-03-07 23:12:05",
    "EPOCH_MICROSECONDS": "296607",
    "MEAN_MOTION": "16.35855842",
    "ECCENTRICITY": "0.0094843",
    "INCLINATION": "80.6499",
    "RA_OF_ASC_NODE": "290.2565",
    "ARG_OF_PERICENTER": "170.3363",
    "MEAN_ANOMALY": "189.7568",
    "EPHEMERIS_TYPE": "0",
    "ELEMENT_SET_NO": "999",
    "REV_AT_EPOCH": "1594",
    "BSTAR": "0",
    "MEAN_MOTION_DOT": "0.09310919",
    "MEAN_MOTION_DDOT": "0",
    "FILE": "33906",
    "TLE_LINE0": "0 DISCOVERER 8",
    "TLE_LINE1": "1 00025U 59011  A 60067.96672797  .09310919 +00000-0 +00000-0 0  9997",
    "TLE_LINE2": "2 00025 080.6499 290.2565 0094843 170.3363 189.7568 16.35855842015945",
    "OBJECT_ID": "1959-011A",
    "OBJECT_NUMBER": "25",
    "SEMIMAJOR_AXIS": "6554.990",
    "PERIOD": "88.027",
    "APOGEE": "239.025",
    "PERIGEE": "114.686"
  },
  {
    "ORDINAL": "1",
    "COMMENT": "GENERATED VIA SPACETRACK.ORG API",
    "ORIGINATOR": "JSPOC",
    "NORAD_CAT_ID": "26",
    "OBJECT_NAME": "DISCOVERER 5 CAPSULE",
    "OBJECT_TYPE": "PAYLOAD",
    "CLASSIFICATION_TYPE": "U",
    "INTLDES": "59005B",
    "EPOCH": "1961-02-10 06:57:42",
    "EPOCH_MICROSECONDS": "423839",
    "MEAN_MOTION": "16.22923515",
    "ECCENTRICITY": "0.0103758",
    "INCLINATION": "78.9399",
    "RA_OF_ASC_NODE": "321.1425",
    "ARG_OF_PERICENTER": "73.2921",
    "MEAN_ANOMALY": "287.2863",
    "EPHEMERIS_TYPE": "0",
    "ELEMENT_SET_NO": "999",
    "REV_AT_EPOCH": "5290",
    "BSTAR": "0",
    "MEAN_MOTION_DOT": "0.03920686",
    "MEAN_MOTION_DDOT": "0",
    "FILE": "33907",
    "TLE_LINE0": "0 DISCOVERER 5 CAPSULE",
    "TLE_LINE1": "1 00026U 59005  B 61041.29007435  .03920686 +00000-0 +00000-0 0  9993",
    "TLE_LINE2": "2 00026 078.9399 321.1425 0103758 073.2921 287.2863 16.22923515052909",
    "OBJECT_ID": "1959-005B",
    "OBJECT_NUMBER": "26",
    "SEMIMAJOR_AXIS": "6589.767",
    "PERIOD": "88.728",
    "APOGEE": "280.006",
    "PERIGEE": "143.258"
  },
  {
    "ORDINAL": "1",
    "COMMENT": "GENERATED VIA SPACETRACK.ORG API",
    "ORIGINATOR": "JSPOC",
    "NORAD_CAT_ID": "28",
    "OBJECT_NAME": "THOR ABLE R/B",
    "OBJECT_TYPE": "ROCKET BODY",
    "CLASSIFICATION_TYPE": "U",
    "INTLDES": "60002A",
    "EPOCH": "1991-07-02 11:34:12",
    "EPOCH_MICROSECONDS": "376415",
    "MEAN_MOTION": "16.40102062",
    "ECCENTRICITY": "0.0003576",
    "INCLINATION": "48.343",
    "RA_OF_ASC_NODE": "203.3366",
    "ARG_OF_PERICENTER": "315.0053",
    "MEAN_ANOMALY": "45.0867",
    "EPHEMERIS_TYPE": "0",
    "ELEMENT_SET_NO": "999",
    "REV_AT_EPOCH": "67681",
    "BSTAR": "0.0014752",
    "MEAN_MOTION_DOT": "0.20795284",
    "MEAN_MOTION_DDOT": "5.7673e-05",
    "FILE": "34749",
    "TLE_LINE0": "0 THOR ABLE R/B",
    "TLE_LINE1": "1 00028U 60002  A 91183.48208769  .20795284 +57673-4 +14752-2 0  9994",
    "TLE_LINE2": "2 00028 048.3430 203.3366 0003576 315.0053 045.0867 16.40102062676815",
    "OBJECT_ID": "1960-002A",
    "OBJECT_NUMBER": "28",
    "SEMIMAJOR_AXIS": "6543.672",
    "PERIOD": "87.799",
    "APOGEE": "167.877",
    "PERIGEE": "163.197"
  }
]
